{"type": "FeatureCollection", "features": [ {"type": "Feature", "properties": {"norad_id": 66564, "name": "STARLINK-35358", "group": "last-30-days", "lat": -31.115096107806075, "lon": -89.16297832200645, "alt_km": 397.57513616119104, "timestamp": "2025-12-24T18:55:54.773995+00:00", "meta": {"OBJECT_NAME": "STARLINK-35358", "OBJECT_ID": "2025-268H", "EPOCH": "2025-12-24T04:05:13.629696", "MEAN_MOTION": 15.56023289, "ECCENTRICITY": 0.00061187, "INCLINATION": 42.9996, "RA_OF_ASC_NODE": 54.1135, "ARG_OF_PERICENTER": 207.9587, "MEAN_ANOMALY": 152.0947, "EPHEMERIS_TYPE": 0, "CLASSIFICATION_TYPE": "U", "NORAD_CAT_ID": 66564, "ELEMENT_SET_NO": 999, "REV_AT_EPOCH": 640, "BSTAR": 0.0016624036, "MEAN_MOTION_DOT": 0.00120397, "MEAN_MOTION_DDOT": 0}, "tle": {"line1": "1 66564U 25268H   25358.17029664  .00120397  00000+0  16624-2 0  9990", "line2": "2 66564  42.9996  54.1135 0006118 207.9587 152.0947 15.56023289  6400"}}, "geometry": {"type": "Point", "coordinates": [-89.16297832200645, -31.115096107806075]}}, {"type": "Feature", "properties": {"norad_id": 66565, "name": "STARLINK-35893", "group": "last-30-days", "lat": -30.33297067817314, "lon": -90.63753791633873, "alt_km": 409.9371279181569, "timestamp": "2025-12-24T18:55:54.774007+00:00", "meta": {"OBJECT_NAME": "STARLINK-35893", "OBJECT_ID": "2025-268J", "EPOCH": "2025-12-24T00:00:00.998784", "MEAN_MOTION": 15.56366693, "ECCENTRICITY": 0.000118, "INCLINATION": 43.0006, "RA_OF_ASC_NODE": 55.109, "ARG_OF_PERICENTER": 265.6681, "MEAN_ANOMALY": 222.1386, "EPHEMERIS_TYPE": 0, "CLASSIFICATION_TYPE": "U", "NORAD_CAT_ID": 66565, "ELEMENT_SET_NO": 999, "REV_AT_EPOCH": 610, "BSTAR": -0.032507, "MEAN_MOTION_DOT": -0.02095315, "MEAN_MOTION_DDOT": 0}, "tle": {"line1": "1 66565U 25268J   25358.00001156 -.02095315  00000+0 -32507-1 0  9991", "line2": "2 66565  43.0006  55.1090 0001180 265.6681 222.1386 15.56366693  6108"}}, "geometry": {"type": "Point", "coordinates": [-90.63753791633873, -30.33297067817314]}}, {"type": "Feature", "properties": {"norad_id": 66566, "name": "STARLINK-35871", "group": "last-30-days", "lat": -32.12809947669608, "lon": -87.17351932573393, "alt_km": 408.0054865127022, "timestamp": "2025-12-24T18:55:54.774018+00:00", "meta": {"OBJECT_NAME": "STARLINK-35871", "OBJECT_ID": "2025-268K", "EPOCH": "2025-12-24T00:00:00.998784", "MEAN_MOTION": 15.56787862, "ECCENTRICITY": 0.0001369, "INCLINATION": 43.0007, "RA_OF_ASC_NODE": 55.1044, "ARG_OF_PERICENTER": 268.4288, "MEAN_ANOMALY": 221.2622, "EPHEMERIS_TYPE": 0, "CLASSIFICATION_TYPE": "U", "NORAD_CAT_ID": 66566, "ELEMENT_SET_NO": 999, "REV_AT_EPOCH": 610, "BSTAR": -0.029428, "MEAN_MOTION_DOT": -0.01909981, "MEAN_MOTION_DDOT": 0}, "tle": {"line1": "1 66566U 25268K   25358.00001156 -.01909981  00000+0 -29428-1 0  9992", "line2": "2 66566  43.0007  55.1044 0001369 268.4288 221.2622 15.56787862  6100"}}, "geometry": {"type": "Point", "coordinates": [-87.17351932573393, -32.12809947669608]}}, {"type": "Feature", "properties": {"norad_id": 66567, "name": "STARLINK-35825", "group": "last-30-days", "lat": -34.95510419916214, "lon": -80.94540878844535, "alt_km": 400.61155689947736, "timestamp": "2025-12-24T18:55:54.774029+00:00", "meta": {"OBJECT_NAME": "STARLINK-35825", "OBJECT_ID": "2025-268L", "EPOCH": "2025-12-24T04:03:28.206144", "MEAN_MOTION": 15.56497768, "ECCENTRICITY": 3.292e-05, "INCLINATION": 42.9994, "RA_OF_ASC_NODE": 54.107, "ARG_OF_PERICENTER": 52.3294, "MEAN_ANOMALY": 307.7599, "EPHEMERIS_TYPE": 0, "CLASSIFICATION_TYPE": "U", "NORAD_CAT_ID": 66567, "ELEMENT_SET_NO": 999, "REV_AT_EPOCH": 640, "BSTAR": 0.0014695002, "MEAN_MOTION_DOT": 0.00108043, "MEAN_MOTION_DDOT": 0}, "tle": {"line1": "1 66567U 25268L   25358.16907646  .00108043  00000+0  14695-2 0  9997", "line2": "2 66567  42.9994  54.1070 0000329  52.3294 307.7599 15.56497768  6403"}}, "geometry": {"type": "Point", "coordinates": [-80.94540878844535, -34.95510419916214]}}, {"type": "Feature", "properties": {"norad_id": 66568, "name": "STARLINK-35803", "group": "last-30-days", "lat": -22.08247236225989, "lon": -103.6875622588245, "alt_km": 405.95753013632384, "timestamp": "2025-12-24T18:55:54.774040+00:00", "meta": {"OBJECT_NAME": "STARLINK-35803", "OBJECT_ID": "2025-268M", "EPOCH": "2025-12-24T08:00:03.000384", "MEAN_MOTION": 15.56009654, "ECCENTRICITY": 9.213e-05, "INCLINATION": 43.0001, "RA_OF_ASC_NODE": 53.1863, "ARG_OF_PERICENTER": 258.9667, "MEAN_ANOMALY": 281.5169, "EPHEMERIS_TYPE": 0, "CLASSIFICATION_TYPE": "U", "NORAD_CAT_ID": 66568, "ELEMENT_SET_NO": 999, "REV_AT_EPOCH": 604, "BSTAR": -0.028201284, "MEAN_MOTION_DOT": -0.01792034, "MEAN_MOTION_DDOT": 0}, "tle": {"line1": "1 66568U 25268M   25358.33336806 -.01792034  00000+0 -28201-1 0  9990", "line2": "2 66568  43.0001  53.1863 0000921 258.9667 281.5169 15.56009654  6045"}}, "geometry": {"type": "Point", "coordinates": [-103.6875622588245, -22.08247236225989]}}, {"type": "Feature", "properties": {"norad_id": 66569, "name": "STARLINK-35835", "group": "last-30-days", "lat": -36.293072658866954, "lon": -77.55452073820683, "alt_km": 402.5030407107306, "timestamp": "2025-12-24T18:55:54.774051+00:00", "meta": {"OBJECT_NAME": "STARLINK-35835", "OBJECT_ID": "2025-268N", "EPOCH": "2025-12-24T08:00:03.000384", "MEAN_MOTION": 15.56803293, "ECCENTRICITY": 0.00013627, "INCLINATION": 43.0003, "RA_OF_ASC_NODE": 53.1253, "ARG_OF_PERICENTER": 271.5115, "MEAN_ANOMALY": 293.9884, "EPHEMERIS_TYPE": 0, "CLASSIFICATION_TYPE": "U", "NORAD_CAT_ID": 66569, "ELEMENT_SET_NO": 999, "REV_AT_EPOCH": 610, "BSTAR": -0.018045553, "MEAN_MOTION_DOT": -0.0119306, "MEAN_MOTION_DDOT": 0}, "tle": {"line1": "1 66569U 25268N   25358.33336806 -.01193060  00000+0 -18046-1 0  9991", "line2": "2 66569  43.0003  53.1253 0001362 271.5115 293.9884 15.56803293  6109"}}, "geometry": {"type": "Point", "coordinates": [-77.55452073820683, -36.293072658866954]}}, {"type": "Feature", "properties": {"norad_id": 66570, "name": "STARLINK-35834", "group": "last-30-days", "lat": 23.654523866403594, "lon": -157.36322575416315, "alt_km": 441.20735427077125, "timestamp": "2025-12-24T18:55:54.774062+00:00", "meta": {"OBJECT_NAME": "STARLINK-35834", "OBJECT_ID": "2025-268P", "EPOCH": "2025-12-24T08:00:03.000384", "MEAN_MOTION": 15.42770845, "ECCENTRICITY": 0.00014517, "INCLINATION": 43, "RA_OF_ASC_NODE": 53.304, "ARG_OF_PERICENTER": 286.8597, "MEAN_ANOMALY": 206.0899, "EPHEMERIS_TYPE": 0, "CLASSIFICATION_TYPE": "U", "NORAD_CAT_ID": 66570, "ELEMENT_SET_NO": 999, "REV_AT_EPOCH": 604, "BSTAR": -0.051423092, "MEAN_MOTION_DOT": -0.02045728, "MEAN_MOTION_DDOT": 0}, "tle": {"line1": "1 66570U 25268P   25358.33336806 -.02045728  00000+0 -51423-1 0  9997", "line2": "2 66570  43.0000  53.3040 0001451 286.8597 206.0899 15.42770845  6041"}}, "geometry": {"type": "Point", "coordinates": [-157.36322575416315, 23.654523866403594]}}, {"type": "Feature", "properties": {"norad_id": 66571, "name": "STARLINK-35836", "group": "last-30-days", "lat": 16.03088613321279, "lon": -147.31574856931707, "alt_km": 439.74614415047654, "timestamp": "2025-12-24T18:55:54.774073+00:00", "meta": {"OBJECT_NAME": "STARLINK-35836", "OBJECT_ID": "2025-268Q", "EPOCH": "2025-12-24T08:00:03.000384", "MEAN_MOTION": 15.43616759, "ECCENTRICITY": 0.00014622, "INCLINATION": 43, "RA_OF_ASC_NODE": 53.2762, "ARG_OF_PERICENTER": 282.2143, "MEAN_ANOMALY": 221.5147, "EPHEMERIS_TYPE": 0, "CLASSIFICATION_TYPE": "U", "NORAD_CAT_ID": 66571, "ELEMENT_SET_NO": 999, "REV_AT_EPOCH": 604, "BSTAR": -0.050544074, "MEAN_MOTION_DOT": -0.02066927, "MEAN_MOTION_DDOT": 0}, "tle": {"line1": "1 66571U 25268Q   25358.33336806 -.02066927  00000+0 -50544-1 0  9995", "line2": "2 66571  43.0000  53.2762 0001462 282.2143 221.5147 15.43616759  6043"}}, "geometry": {"type": "Point", "coordinates": [-147.31574856931707, 16.03088613321279]}}, {"type": "Feature", "properties": {"norad_id": 66572, "name": "STARLINK-35870", "group": "last-30-days", "lat": 3.7833073594131226, "lon": -133.46964672437332, "alt_km": 436.9184582245034, "timestamp": "2025-12-24T18:55:54.774085+00:00", "meta": {"OBJECT_NAME": "STARLINK-35870", "OBJECT_ID": "2025-268R", "EPOCH": "2025-12-24T08:00:03.000384", "MEAN_MOTION": 15.45067276, "ECCENTRICITY": 0.00012616, "INCLINATION": 43, "RA_OF_ASC_NODE": 53.2381, "ARG_OF_PERICENTER": 283.7842, "MEAN_ANOMALY": 235.8941, "EPHEMERIS_TYPE": 0, "CLASSIFICATION_TYPE": "U", "NORAD_CAT_ID": 66572, "ELEMENT_SET_NO": 999, "REV_AT_EPOCH": 610, "BSTAR": -0.048128995, "MEAN_MOTION_DOT": -0.02068464, "MEAN_MOTION_DDOT": 0}, "tle": {"line1": "1 66572U 25268R   25358.33336806 -.02068464  00000+0 -48129-1 0  9990", "line2": "2 66572  43.0000  53.2381 0001261 283.7842 235.8941 15.45067276  6103"}}, "geometry": {"type": "Point", "coordinates": [-133.46964672437332, 3.7833073594131226]}}, {"type": "Feature", "properties": {"norad_id": 66573, "name": "STARLINK-35650", "group": "last-30-days", "lat": -15.062688449636411, "lon": -112.69038143649874, "alt_km": 418.2456776641375, "timestamp": "2025-12-24T18:55:54.774096+00:00", "meta": {"OBJECT_NAME": "STARLINK-35650", "OBJECT_ID": "2025-268S", "EPOCH": "2025-12-23T11:08:29.992128", "MEAN_MOTION": 15.50365619, "ECCENTRICITY": 0.0004817, "INCLINATION": 43.0033, "RA_OF_ASC_NODE": 58.2732, "ARG_OF_PERICENTER": 315.3738, "MEAN_ANOMALY": 44.6734, "EPHEMERIS_TYPE": 0, "CLASSIFICATION_TYPE": "U", "NORAD_CAT_ID": 66573, "ELEMENT_SET_NO": 999, "REV_AT_EPOCH": 629, "BSTAR": 0.0013458911, "MEAN_MOTION_DOT": 0.00078839, "MEAN_MOTION_DDOT": 0}, "tle": {"line1": "1 66573U 25268S   25357.46423602  .00078839  00000+0  13459-2 0  9997", "line2": "2 66573  43.0033  58.2732 0004817 315.3738  44.6734 15.50365619  6295"}}, "geometry": {"type": "Point", "coordinates": [-112.69038143649874, -15.062688449636411]}}]}